DMSP 5D-3 F16 (USA 172) 
1 28054U 03048A   26195.61992630 -.00000052  00000+0 -35783-5 0  9992
2 28054  98.9897 219.6288 0008101  72.5816  37.2542 14.14484844173361
METEOSAT-9 (MSG-2)      
1 28912U 05049B   26195.21167609  .00000112  00000+0  00000+0 0  9997
2 28912   9.4206  53.8969 0002113 356.0044   4.0386  1.00271474  7266
DMSP 5D-3 F17 (USA 191) 
1 29522U 06050A   26195.60563971 -.00000024  00000+0  10173-4 0  9993
2 29522  98.7387 201.6155 0009748 344.6297  15.4579 14.14996220 16306
FENGYUN 3A              
1 32958U 08026A   26195.53585461  .00000016  00000+0  28120-4 0  9996
2 32958  98.6887 135.8582 0009677  53.5617 306.6451 14.19576428939286
GOES 14                 
1 35491U 09033A   26195.51572480 -.00000366  00000+0  00000+0 0  9996
2 35491   1.7580  82.7016 0001894  40.4725 120.3585  1.00098395  6862
DMSP 5D-3 F18 (USA 210) 
1 35951U 09057A   26195.57874719  .00000155  00000+0  10318-3 0  9991
2 35951  98.9056 176.2907 0011187 167.1901 192.9558 14.14911340863461
EWS-G2 (GOES 15)        
1 36411U 10008A   26195.59003163  .00000013  00000+0  00000+0 0  9996
2 36411   1.3507  82.4684 0005226  54.2559  71.4547  1.00268443 59910
COMS 1                  
1 36744U 10032A   26195.45878229 -.00000258  00000+0  00000+0 0  9992
2 36744   4.8730  75.0265 0011267  14.7056 332.7369  0.99168113 51358
FENGYUN 3B              
1 37214U 10059A   26195.61226355  .00000126  00000+0  88205-4 0  9990
2 37214  98.9611 241.7409 0023151 108.0372   9.8208 14.14847868811304
SUOMI NPP               
1 37849U 11061A   26195.61860054 -.00000002  00000+0  19924-4 0  9994
2 37849  98.7956 136.3081 0000722 217.4605 142.6520 14.19522486762338
METEOSAT-10 (MSG-3)     
1 38552U 12035B   26195.34522456 -.00000017  00000+0  00000+0 0  9995
2 38552   4.7339  60.8845 0001108  16.3879 339.2653  1.00270602 51124
METOP-B                 
1 38771U 12049A   26195.57166567  .00000049  00000+0  42059-4 0  9994
2 38771  98.6491 246.5225 0001072 259.2710 100.8347 14.21446275717157
INSAT-3D                
1 39216U 13038B   26195.51572480 -.00000348  00000+0  00000+0 0  9995
2 39216   1.9944  82.1944 0000514  83.4921  81.8539  1.00268772 47351
FENGYUN 3C              
1 39260U 13052A   26195.60641824  .00000022  00000+0  32171-4 0  9996
2 39260  98.4998 168.2249 0013693 307.8102  52.1833 14.15760657662440
METEOR-M 2              
1 40069U 14037A   26195.59763641 -.00000161  00000+0 -54445-4 0  9993
2 40069  98.5124 170.3674 0005213 329.1762  30.9109 14.21468754623217
HIMAWARI-8              
1 40267U 14060A   26195.58689512 -.00000283  00000+0  00000+0 0  9999
2 40267   0.0153 350.2375 0001079 179.2085 114.9510  1.00271628 43032
FENGYUN 2G              
1 40367U 14090A   26195.64993314 -.00000309  00000+0  00000+0 0  9997
2 40367   5.7062  72.4815 0004180 153.2737  39.9240  1.00260242 42279
METEOSAT-11 (MSG-4)     
1 40732U 15034A   26195.27569610  .00000052  00000+0  00000+0 0  9993
2 40732   3.2669  70.9389 0002190 353.9195 335.7800  1.00271573  7488
ELEKTRO-L 2             
1 41105U 15074A   26195.41356580 -.00000129  00000+0  00000+0 0  9994
2 41105   6.7595  70.1832 0001026 212.6794 143.7919  1.00272099 38775
SENTINEL-3A             
1 41335U 16011A   26195.63733864  .00000047  00000+0  37374-4 0  9996
2 41335  98.6238 262.6250 0001365  90.3313 269.8024 14.26739689541973
INSAT-3DR               
1 41752U 16054A   26195.57366941 -.00000085  00000+0  00000+0 0  9991
2 41752   0.0683  88.6555 0010603 181.2748 303.0214  1.00270666 36095
HIMAWARI-9              
1 41836U 16064A   26195.58689512  .00000000  00000+0  00000+0 0  9994
2 41836   0.0126 316.2514 0002287 222.2337 105.9965  1.00265737 35481
GOES 16                 
1 41866U 16071A   26195.56823425 -.00000099  00000+0  00000+0 0  9995
2 41866   0.4023  85.4740 0000524  97.8669 208.9572  1.00270917 35378
FENGYUN 4A              
1 41882U 16077A   26195.65489240 -.00000367  00000+0  00000+0 0  9990
2 41882   2.3893  79.9644 0008496 159.5104  52.5516  1.00268384 35207
CYGFM05                 
1 41884U 16078A   26195.10431951  .00016003  00000+0  20807-3 0  9993
2 41884  34.9569  82.1889 0006159  25.9926 334.1108 15.57820698532958
CYGFM04                 
1 41885U 16078B   26194.98823966  .00021781  00000+0  23151-3 0  9994
2 41885  34.9326  49.2545 0004309  70.1519 289.9671 15.63027210533193
CYGFM02                 
1 41886U 16078C   26194.99909647  .00027257  00000+0  25397-3 0  9995
2 41886  34.9407  42.8972 0005017  74.6648 285.4633 15.66297536533378
CYGFM01                 
1 41887U 16078D   26195.08094773  .00017531  00000+0  22174-3 0  9996
2 41887  34.9398  83.1778 0006167  18.9479 341.1474 15.58537452532906
CYGFM08                 
1 41888U 16078E   26195.31236236  .00020275  00000+0  22942-3 0  9997
2 41888  34.9434  60.4779 0006233  59.5394 300.5947 15.61422238533216
CYGFM07                 
1 41890U 16078G   26195.01401315  .00020774  00000+0  23424-3 0  9999
2 41890  34.9449  50.7865 0004716  71.3669 288.7568 15.61519734533195
CYGFM03                 
1 41891U 16078H   26195.30485432  .00020483  00000+0  23101-3 0  9993
2 41891  34.9406  50.7748 0004530  57.5404 302.5759 15.61517081533219
