OBJECT_NAME,OBJECT_ID,EPOCH,MEAN_MOTION,ECCENTRICITY,INCLINATION,RA_OF_ASC_NODE,ARG_OF_PERICENTER,MEAN_ANOMALY,EPHEMERIS_TYPE,CLASSIFICATION_TYPE,NORAD_CAT_ID,ELEMENT_SET_NO,REV_AT_EPOCH,BSTAR,MEAN_MOTION_DOT,MEAN_MOTION_DDOT
DMSP 5D-3 F16 (USA 172),2003-048A,2026-07-14T14:52:41.632320,14.14484844,.00081019,98.9897,219.6288,72.5816,37.2542,0,U,28054,999,17336,-.3578298E-5,-.52E-6,0
METEOSAT-9 (MSG-2),2005-049B,2026-07-14T05:04:48.814176,1.00271474,.00021138,9.4206,53.8969,356.0044,4.0386,0,U,28912,999,726,0,.112E-5,0
DMSP 5D-3 F17 (USA 191),2006-050A,2026-07-14T14:32:07.270944,14.14996220,.00097485,98.7387,201.6155,344.6297,15.4579,0,U,29522,999,1630,.1017347E-4,-.24E-6,0
FENGYUN 3A,2008-026A,2026-07-14T12:51:37.838304,14.19576428,.00096779,98.6887,135.8582,53.5617,306.6451,0,U,32958,999,93928,.28119596E-4,.16E-6,0
GOES 14,2009-033A,2026-07-14T12:22:38.622720,1.00098395,.00018944,1.7580,82.7016,40.4725,120.3585,0,U,35491,999,686,0,-.366E-5,0
DMSP 5D-3 F18 (USA 210),2009-057A,2026-07-14T13:53:23.757216,14.14911340,.00111877,98.9056,176.2907,167.1901,192.9558,0,U,35951,999,86346,.10317787E-3,.155E-5,0
EWS-G2 (GOES 15),2010-008A,2026-07-14T14:09:38.732832,1.00268443,.00052265,1.3507,82.4684,54.2559,71.4547,0,U,36411,999,5991,0,.13E-6,0
COMS 1,2010-032A,2026-07-14T11:00:38.789856,0.99168113,.00112678,4.8730,75.0265,14.7056,332.7369,0,U,36744,999,5135,0,-.258E-5,0
FENGYUN 3B,2010-059A,2026-07-14T14:41:39.570720,14.14847868,.00231518,98.9611,241.7409,108.0372,9.8208,0,U,37214,999,81130,.8820492E-4,.126E-5,0
SUOMI NPP,2011-061A,2026-07-14T14:50:47.086656,14.19522486,.00007222,98.7956,136.3081,217.4605,142.6520,0,U,37849,999,76233,.1992424E-4,-.2E-7,0
METEOSAT-10 (MSG-3),2012-035B,2026-07-14T08:17:07.401984,1.00270602,.00011087,4.7339,60.8845,16.3879,339.2653,0,U,38552,999,5112,0,-.17E-6,0
METOP-B,2012-049A,2026-07-14T13:43:11.913888,14.21446275,.00010725,98.6491,246.5225,259.2710,100.8347,0,U,38771,999,71715,.42058736E-4,.49E-6,0
INSAT-3D,2013-038B,2026-07-14T12:22:38.622720,1.00268772,.00005142,1.9944,82.1944,83.4921,81.8539,0,U,39216,999,4735,0,-.348E-5,0
FENGYUN 3C,2013-052A,2026-07-14T14:33:14.535936,14.15760657,.00136938,98.4998,168.2249,307.8102,52.1833,0,U,39260,999,66244,.32170754E-4,.22E-6,0
METEOR-M 2,2014-037A,2026-07-14T14:20:35.785824,14.21468754,.00052133,98.5124,170.3674,329.1762,30.9109,0,U,40069,999,62321,-.54444934E-4,-.161E-5,0
HIMAWARI-8,2014-060A,2026-07-14T14:05:07.738368,1.00271628,.00010792,0.0153,350.2375,179.2085,114.9510,0,U,40267,999,4303,0,-.283E-5,0
FENGYUN 2G,2014-090A,2026-07-14T15:35:54.223296,1.00260242,.000418,5.7062,72.4815,153.2737,39.9240,0,U,40367,999,4227,0,-.309E-5,0
METEOSAT-11 (MSG-4),2015-034A,2026-07-14T06:37:00.143040,1.00271573,.00021903,3.2669,70.9389,353.9195,335.7800,0,U,40732,999,748,0,.52E-6,0
ELEKTRO-L 2,2015-074A,2026-07-14T09:55:32.085120,1.00272099,.00010268,6.7595,70.1832,212.6794,143.7919,0,U,41105,999,3877,0,-.129E-5,0
SENTINEL-3A,2016-011A,2026-07-14T15:17:46.058496,14.26739689,.00013654,98.6238,262.6250,90.3313,269.8024,0,U,41335,999,54197,.37373875E-4,.47E-6,0
INSAT-3DR,2016-054A,2026-07-14T13:46:05.037024,1.00270666,.00106036,0.0683,88.6555,181.2748,303.0214,0,U,41752,999,3609,0,-.85E-6,0
HIMAWARI-9,2016-064A,2026-07-14T14:05:07.738368,1.00265737,.00022876,0.0126,316.2514,222.2337,105.9965,0,U,41836,999,3548,0,0,0
GOES 16,2016-071A,2026-07-14T13:38:15.439200,1.00270917,.00005246,0.4023,85.4740,97.8669,208.9572,0,U,41866,999,3537,0,-.99E-6,0
FENGYUN 4A,2016-077A,2026-07-14T15:43:02.703360,1.00268384,.00084964,2.3893,79.9644,159.5104,52.5516,0,U,41882,999,3520,0,-.367E-5,0
CYGFM05,2016-078A,2026-07-14T02:30:13.205664,15.57820698,.0006159,34.9569,82.1889,25.9926,334.1108,0,U,41884,999,53295,.20806994E-3,.16003E-3,0
CYGFM04,2016-078B,2026-07-13T23:43:03.906624,15.63027210,.00043098,34.9326,49.2545,70.1519,289.9671,0,U,41885,999,53319,.23151192E-3,.21781E-3,0
CYGFM02,2016-078C,2026-07-13T23:58:41.935008,15.66297536,.00050176,34.9407,42.8972,74.6648,285.4633,0,U,41886,999,53337,.25397121E-3,.27257E-3,0
CYGFM01,2016-078D,2026-07-14T01:56:33.883872,15.58537452,.00061673,34.9398,83.1778,18.9479,341.1474,0,U,41887,999,53290,.2217353E-3,.17531E-3,0
CYGFM08,2016-078E,2026-07-14T07:29:48.107904,15.61422238,.00062337,34.9434,60.4779,59.5394,300.5947,0,U,41888,999,53321,.22941916E-3,.20275E-3,0
CYGFM07,2016-078G,2026-07-14T00:20:10.736160,15.61519734,.00047161,34.9449,50.7865,71.3669,288.7568,0,U,41890,999,53319,.23423728E-3,.20774E-3,0
CYGFM03,2016-078H,2026-07-14T07:18:59.413248,15.61517081,.00045307,34.9406,50.7748,57.5404,302.5759,0,U,41891,999,53321,.23100798E-3,.20483E-3,0
